{"type": "FeatureCollection", "features": [ {"type": "Feature", "properties": {"norad_id": 66835, "name": "STARLINK-35890", "group": "last-30-days", "lat": -10.172487793250129, "lon": -169.43700018468985, "alt_km": 328.977047443409, "timestamp": "2025-12-14T07:33:18.188591+00:00", "meta": {"OBJECT_NAME": "STARLINK-35890", "OBJECT_ID": "2025-280Q", "EPOCH": "2025-12-13T13:22:48.290304", "MEAN_MOTION": 15.79814864, "ECCENTRICITY": 0.00138963, "INCLINATION": 69.9919, "RA_OF_ASC_NODE": 196.4761, "ARG_OF_PERICENTER": 248.7562, "MEAN_ANOMALY": 111.2155, "EPHEMERIS_TYPE": 0, "CLASSIFICATION_TYPE": "U", "NORAD_CAT_ID": 66835, "ELEMENT_SET_NO": 999, "REV_AT_EPOCH": 305, "BSTAR": 0.0087903868, "MEAN_MOTION_DOT": 0.0185624, "MEAN_MOTION_DDOT": 0}, "tle": {"line1": "1 66835U 25280Q   25347.55750336  .01856240  00000+0  87904-2 0  9995", "line2": "2 66835  69.9919 196.4761 0013896 248.7562 111.2155 15.79814864  3055"}}, "geometry": {"type": "Point", "coordinates": [-169.43700018468985, -10.172487793250129]}}, {"type": "Feature", "properties": {"norad_id": 66836, "name": "STARLINK-35838", "group": "last-30-days", "lat": -17.618675570891565, "lon": -172.3246690977443, "alt_km": 342.1542239666751, "timestamp": "2025-12-14T07:33:18.188607+00:00", "meta": {"OBJECT_NAME": "STARLINK-35838", "OBJECT_ID": "2025-280R", "EPOCH": "2025-12-13T04:15:00.565632", "MEAN_MOTION": 15.78955191, "ECCENTRICITY": 0.00042084, "INCLINATION": 69.992, "RA_OF_ASC_NODE": 197.5573, "ARG_OF_PERICENTER": 272.961, "MEAN_ANOMALY": 87.1108, "EPHEMERIS_TYPE": 0, "CLASSIFICATION_TYPE": "U", "NORAD_CAT_ID": 66836, "ELEMENT_SET_NO": 999, "REV_AT_EPOCH": 299, "BSTAR": -0.0047166842, "MEAN_MOTION_DOT": -0.00767648, "MEAN_MOTION_DDOT": 0}, "tle": {"line1": "1 66836U 25280R   25347.17708988 -.00767648  00000+0 -47167-2 0  9991", "line2": "2 66836  69.9920 197.5573 0004208 272.9610  87.1108 15.78955191  2990"}}, "geometry": {"type": "Point", "coordinates": [-172.3246690977443, -17.618675570891565]}}, {"type": "Feature", "properties": {"norad_id": 66837, "name": "STARLINK-35729", "group": "last-30-days", "lat": -16.839587271056182, "lon": -172.0126280603947, "alt_km": 345.4793729630683, "timestamp": "2025-12-14T07:33:18.188617+00:00", "meta": {"OBJECT_NAME": "STARLINK-35729", "OBJECT_ID": "2025-280S", "EPOCH": "2025-12-13T14:53:06.239904", "MEAN_MOTION": 15.78096509, "ECCENTRICITY": 0.00054323, "INCLINATION": 69.9923, "RA_OF_ASC_NODE": 196.2923, "ARG_OF_PERICENTER": 269.6342, "MEAN_ANOMALY": 90.4235, "EPHEMERIS_TYPE": 0, "CLASSIFICATION_TYPE": "U", "NORAD_CAT_ID": 66837, "ELEMENT_SET_NO": 999, "REV_AT_EPOCH": 306, "BSTAR": -0.0096715229, "MEAN_MOTION_DOT": -0.01464154, "MEAN_MOTION_DDOT": 0}, "tle": {"line1": "1 66837U 25280S   25347.62021111 -.01464154  00000+0 -96715-2 0  9998", "line2": "2 66837  69.9923 196.2923 0005432 269.6342  90.4235 15.78096509  3060"}}, "geometry": {"type": "Point", "coordinates": [-172.0126280603947, -16.839587271056182]}}, {"type": "Feature", "properties": {"norad_id": 66838, "name": "STARLINK-35886", "group": "last-30-days", "lat": -3.797429404874316, "lon": -167.0828617579986, "alt_km": 331.4599885968346, "timestamp": "2025-12-14T07:33:18.188629+00:00", "meta": {"OBJECT_NAME": "STARLINK-35886", "OBJECT_ID": "2025-280T", "EPOCH": "2025-12-13T14:51:58.667328", "MEAN_MOTION": 15.7986106, "ECCENTRICITY": 0.00132222, "INCLINATION": 69.9922, "RA_OF_ASC_NODE": 196.2893, "ARG_OF_PERICENTER": 247.5169, "MEAN_ANOMALY": 112.4632, "EPHEMERIS_TYPE": 0, "CLASSIFICATION_TYPE": "U", "NORAD_CAT_ID": 66838, "ELEMENT_SET_NO": 999, "REV_AT_EPOCH": 306, "BSTAR": 0.0068293144, "MEAN_MOTION_DOT": 0.01426816, "MEAN_MOTION_DDOT": 0}, "tle": {"line1": "1 66838U 25280T   25347.61942902  .01426816  00000+0  68293-2 0  9999", "line2": "2 66838  69.9922 196.2893 0013222 247.5169 112.4632 15.79861060  3063"}}, "geometry": {"type": "Point", "coordinates": [-167.0828617579986, -3.797429404874316]}}, {"type": "Feature", "properties": {"norad_id": 66839, "name": "STARLINK-35717", "group": "last-30-days", "lat": -41.604913588188126, "lon": 175.4714530355138, "alt_km": 387.08753806657114, "timestamp": "2025-12-14T07:33:18.188639+00:00", "meta": {"OBJECT_NAME": "STARLINK-35717", "OBJECT_ID": "2025-280U", "EPOCH": "2025-12-13T16:24:52.295904", "MEAN_MOTION": 15.71051241, "ECCENTRICITY": 0.00234421, "INCLINATION": 69.9919, "RA_OF_ASC_NODE": 196.1115, "ARG_OF_PERICENTER": 32.7375, "MEAN_ANOMALY": 327.5268, "EPHEMERIS_TYPE": 0, "CLASSIFICATION_TYPE": "U", "NORAD_CAT_ID": 66839, "ELEMENT_SET_NO": 999, "REV_AT_EPOCH": 307, "BSTAR": -0.074124695, "MEAN_MOTION_DOT": -0.07624536, "MEAN_MOTION_DDOT": 0}, "tle": {"line1": "1 66839U 25280U   25347.68393861 -.07624536  00000+0 -74125-1 0  9998", "line2": "2 66839  69.9919 196.1115 0023442  32.7375 327.5268 15.71051241  3073"}}, "geometry": {"type": "Point", "coordinates": [175.4714530355138, -41.604913588188126]}}, {"type": "Feature", "properties": {"norad_id": 66840, "name": "STARLINK-35837", "group": "last-30-days", "lat": -40.010797136312675, "lon": 176.54077520308047, "alt_km": 373.14820101818805, "timestamp": "2025-12-14T07:33:18.188650+00:00", "meta": {"OBJECT_NAME": "STARLINK-35837", "OBJECT_ID": "2025-280V", "EPOCH": "2025-12-13T14:52:14.427552", "MEAN_MOTION": 15.7197866, "ECCENTRICITY": 0.00318763, "INCLINATION": 69.9948, "RA_OF_ASC_NODE": 196.2866, "ARG_OF_PERICENTER": 356.958, "MEAN_ANOMALY": 3.1417, "EPHEMERIS_TYPE": 0, "CLASSIFICATION_TYPE": "U", "NORAD_CAT_ID": 66840, "ELEMENT_SET_NO": 999, "REV_AT_EPOCH": 306, "BSTAR": -0.081281382, "MEAN_MOTION_DOT": -0.08921658, "MEAN_MOTION_DDOT": 0}, "tle": {"line1": "1 66840U 25280V   25347.61961143 -.08921658  00000+0 -81281-1 0  9994", "line2": "2 66840  69.9948 196.2866 0031876 356.9580   3.1417 15.71978660  3065"}}, "geometry": {"type": "Point", "coordinates": [176.54077520308047, -40.010797136312675]}}, {"type": "Feature", "properties": {"norad_id": 66841, "name": "STARLINK-35715", "group": "last-30-days", "lat": -12.25944644189664, "lon": -170.2284421080253, "alt_km": 343.94409903036376, "timestamp": "2025-12-14T07:33:18.188660+00:00", "meta": {"OBJECT_NAME": "STARLINK-35715", "OBJECT_ID": "2025-280W", "EPOCH": "2025-12-13T16:22:58.143360", "MEAN_MOTION": 15.77035954, "ECCENTRICITY": 0.00049355, "INCLINATION": 69.9923, "RA_OF_ASC_NODE": 196.1076, "ARG_OF_PERICENTER": 283.5605, "MEAN_ANOMALY": 76.5044, "EPHEMERIS_TYPE": 0, "CLASSIFICATION_TYPE": "U", "NORAD_CAT_ID": 66841, "ELEMENT_SET_NO": 999, "REV_AT_EPOCH": 307, "BSTAR": -0.0044798272, "MEAN_MOTION_DOT": -0.00676243, "MEAN_MOTION_DDOT": 0}, "tle": {"line1": "1 66841U 25280W   25347.68261740 -.00676243  00000+0 -44798-2 0  9990", "line2": "2 66841  69.9923 196.1076 0004935 283.5605  76.5044 15.77035954  3077"}}, "geometry": {"type": "Point", "coordinates": [-170.2284421080253, -12.25944644189664]}}, {"type": "Feature", "properties": {"norad_id": 66842, "name": "STARLINK-35769", "group": "last-30-days", "lat": 2.5335555206142013, "lon": -164.780846314826, "alt_km": 329.8837562364115, "timestamp": "2025-12-14T07:33:18.188670+00:00", "meta": {"OBJECT_NAME": "STARLINK-35769", "OBJECT_ID": "2025-280X", "EPOCH": "2025-12-13T13:19:17.330880", "MEAN_MOTION": 15.79787901, "ECCENTRICITY": 0.00147843, "INCLINATION": 69.9923, "RA_OF_ASC_NODE": 196.466, "ARG_OF_PERICENTER": 252.3352, "MEAN_ANOMALY": 107.6235, "EPHEMERIS_TYPE": 0, "CLASSIFICATION_TYPE": "U", "NORAD_CAT_ID": 66842, "ELEMENT_SET_NO": 999, "REV_AT_EPOCH": 305, "BSTAR": 0.0080982653, "MEAN_MOTION_DOT": 0.01689237, "MEAN_MOTION_DDOT": 0}, "tle": {"line1": "1 66842U 25280X   25347.55506170  .01689237  00000+0  80983-2 0  9998", "line2": "2 66842  69.9923 196.4660 0014784 252.3352 107.6235 15.79787901  3050"}}, "geometry": {"type": "Point", "coordinates": [-164.780846314826, 2.5335555206142013]}}, {"type": "Feature", "properties": {"norad_id": 66843, "name": "STARLINK-35997", "group": "last-30-days", "lat": 3.2635834397260624, "lon": -164.51595562243466, "alt_km": 333.8561776531651, "timestamp": "2025-12-14T07:33:18.188680+00:00", "meta": {"OBJECT_NAME": "STARLINK-35997", "OBJECT_ID": "2025-280Y", "EPOCH": "2025-12-13T14:49:29.908992", "MEAN_MOTION": 15.7952426, "ECCENTRICITY": 0.00113096, "INCLINATION": 69.9923, "RA_OF_ASC_NODE": 196.282, "ARG_OF_PERICENTER": 259.9091, "MEAN_ANOMALY": 100.0834, "EPHEMERIS_TYPE": 0, "CLASSIFICATION_TYPE": "U", "NORAD_CAT_ID": 66843, "ELEMENT_SET_NO": 999, "REV_AT_EPOCH": 306, "BSTAR": 0.0026273983, "MEAN_MOTION_DOT": 0.00508734, "MEAN_MOTION_DDOT": 0}, "tle": {"line1": "1 66843U 25280Y   25347.61770728  .00508734  00000+0  26274-2 0  9992", "line2": "2 66843  69.9923 196.2820 0011309 259.9091 100.0834 15.79524260  3060"}}, "geometry": {"type": "Point", "coordinates": [-164.51595562243466, 3.2635834397260624]}}, {"type": "Feature", "properties": {"norad_id": 66844, "name": "STARLINK-36073", "group": "last-30-days", "lat": -8.491005925551756, "lon": -168.81059025202583, "alt_km": 343.9895648623533, "timestamp": "2025-12-14T07:33:18.188692+00:00", "meta": {"OBJECT_NAME": "STARLINK-36073", "OBJECT_ID": "2025-280Z", "EPOCH": "2025-12-13T16:21:57.390336", "MEAN_MOTION": 15.77045972, "ECCENTRICITY": 0.00049689, "INCLINATION": 69.9915, "RA_OF_ASC_NODE": 196.1047, "ARG_OF_PERICENTER": 278.2455, "MEAN_ANOMALY": 81.818, "EPHEMERIS_TYPE": 0, "CLASSIFICATION_TYPE": "U", "NORAD_CAT_ID": 66844, "ELEMENT_SET_NO": 999, "REV_AT_EPOCH": 304, "BSTAR": -0.0044479124, "MEAN_MOTION_DOT": -0.00672062, "MEAN_MOTION_DDOT": 0}, "tle": {"line1": "1 66844U 25280Z   25347.68191424 -.00672062  00000+0 -44479-2 0  9995", "line2": "2 66844  69.9915 196.1047 0004968 278.2455  81.8180 15.77045972  3047"}}, "geometry": {"type": "Point", "coordinates": [-168.81059025202583, -8.491005925551756]}}]}